{"type": "Feature", "properties": {"name": "lower48+DC"}, "geometry": {"type": "MultiPolygon", "coordinates": [[[[-123.88207804830569, 46.190570202559655], [-124.11110494677976, 46.3064439713156], [-124.07191427814305, 46.48720957892211], [-123.97790439825081, 46.548096597698056], [-124.1434757605192, 46.72166641868486], [-124.28016446495567, 47.258470206206624], [-124.36422085304399, 47.33885728101311], [-124.47068452437048, 47.710634609156166], [-124.66923542280455, 47.8662909424039], [-124.75241216413536, 48.204098279469164], [-124.63808999065508, 48.40985399843392], [-124.59540486315413, 48.431319100078056], [-123.97658239370186, 48.21241415374775], [-123.70040025715865, 48.21759379300744], [-123.4252202763977, 48.169272435155335], [-123.15157301004537, 48.21663271977881], [-123.02093132554012, 48.13047895811803], [-122.77063287035269, 48.125631094021095], [-122.61390353164258, 47.920024637306575], [-122.4759751204907, 47.913205359252494], [-122.45430190866948, 47.72988070565703], [-122.43866330252068, 47.82565335426106], [-122.30083955050084, 48.01903513990994], [-122.4106911785781, 48.11088728234491], [-122.42253409942835, 48.273943806002684], [-122.52082779468067, 48.4583912762135], [-122.47653487168029, 48.59917964259914], [-122.5232177095813, 48.708107211430566], [-122.66903653456636, 48.73069422639338], [-122.84054178386111, 48.869840106374], [-122.80217667320244, 49.021155678940865], [-122.76150148393987, 49.05001386606696], [-95.202983, 49.050239], [-95.2027543823301, 49.38840092932853], [-95.15020947097236, 49.43354801610212], [-94.94370806708007, 49.42118358186289], [-94.78759457679146, 49.32987411858331], [-94.64961036947113, 48.80838589759118], [-94.57427696787018, 48.76477140386385], [-94.25299204427661, 48.74847873577833], [-94.19637770097087, 48.69833796408947], [-93.8263431587587, 48.67630233574924], [-93.76200856438479, 48.57116571775322], [-93.51597799115042, 48.591668515085125], [-93.48118853404657, 48.63713327655283], [-93.2140257484059, 48.69395022431672], [-92.9740290469064, 48.671302377123226], [-92.7028135921259, 48.58410247334472], [-92.630486342073, 48.48810371633893], [-92.48258015901787, 48.49034624353632], [-92.3676417949356, 48.313545202373305], [-92.31831932745236, 48.363808120773406], [-92.03222391447707, 48.40490061556815], [-91.97442387600442, 48.30981646864413], [-91.6850262956139, 48.241731381083326], [-91.663464, 48.14439472584499], [-91.55722486036919, 48.093242574112715], [-91.28002051911884, 48.12852255776271], [-91.09964193825904, 48.22606010830313], [-90.8344242613791, 48.28886942966326], [-90.72445682075096, 48.146846318030484], [-90.58049751010816, 48.17392321590919], [-90.37537737909393, 48.14144227877488], [-90.13560185229974, 48.162616090172186], [-89.8640984463677, 48.03796138553295], [-89.61519303024323, 48.05890936414253], [-89.57173003987802, 48.032539069468456], [-89.62006374294901, 47.907359159173346], [-89.95775714090188, 47.780185643531944], [-90.42394335931736, 47.68131648815101], [-90.71740409355783, 47.57993910816969], [-91.14203167453455, 47.32731259749731], [-91.6154727881743, 46.9863245225426], [-92.01051373456362, 46.774199619075375], [-91.99199008911364, 46.75435283883754], [-91.79495037634402, 46.74474105992511], [-90.83392191839417, 47.007235427130084], [-90.69972966342398, 46.890692276166966], [-90.80139607545777, 46.76703065076722], [-90.54300864548219, 46.633529639903976], [-90.41915667388936, 46.619239797183276], [-90.04780266048418, 46.71861533558358], [-89.86646803628898, 46.84067706273924], [-89.42795698924084, 46.890974500782576], [-89.14640989442522, 47.03682568464388], [-89.01773377193537, 47.04485438157164], [-88.91341928231353, 47.142414998547096], [-88.60175844926867, 47.29035257584647], [-88.43797111400652, 47.41866964198657], [-88.17925676375556, 47.50571702229526], [-87.93210852332244, 47.42830950709564], [-87.90877393398486, 47.368957114810534], [-88.31636716294541, 47.04113335065081], [-88.39316608286168, 46.955299166645915], [-88.39109473689278, 46.88487416008288], [-88.25340228421808, 46.97948575701785], [-87.8888604662386, 46.95642065125478], [-87.60697098097572, 46.85206611514658], [-87.36288736659961, 46.578039502463525], [-87.25588414988648, 46.53791299093082], [-87.00303046990923, 46.57980825439562], [-86.92519575756702, 46.51727343568569], [-86.70369751958359, 46.48838201714147], [-86.16914862464374, 46.7161899902878], [-85.51481083189283, 46.72823526697096], [-85.26640196131557, 46.80363189729961], [-85.0658860035815, 46.8101506038977], [-85.01717961825717, 46.77644228205702], [-84.98145025113256, 46.523097592941376], [-84.82962967014686, 46.49357662497256], [-84.62782734629648, 46.53616652042844], [-84.54606889216309, 46.48178548872495], [-84.42747310201287, 46.551882603356646], [-84.10029060449712, 46.57182365950902], [-84.07272113622342, 46.19895810764031], [-83.96483933638885, 46.07759098023584], [-83.83205572725879, 46.05177235667836], [-83.78618520733136, 46.13989989351666], [-83.5704534838992, 46.141023264020156], [-83.43467609619626, 46.01585490315215], [-83.43662603931105, 45.95729239492346], [-83.56043693673875, 45.861356684961194], [-84.1103164719681, 45.9264707470239], [-84.37552964150355, 45.88316658904777], [-84.64262969802539, 45.99235864075992], [-84.6842592414827, 45.93685241390826], [-84.65298018005313, 45.85113218375865], [-84.67829800176791, 45.80753932880194], [-84.44954704566122, 45.70311011690298], [-84.19757777958304, 45.6840628696535], [-84.07071227455822, 45.54365237430024], [-83.90026579349734, 45.53330512644068], [-83.58774537667286, 45.4031041025504], [-83.4665015187926, 45.40363387897206], [-83.27092085488506, 45.163119074287756], [-83.27840925295358, 45.113065665549996], [-83.38270642219142, 45.02424416848255], [-83.27799258713857, 44.90378590473493], [-83.2237763762374, 44.71705434275002], [-83.28688566513111, 44.32192159135143], [-83.49389359573009, 44.21075622284659], [-83.55546020077168, 44.014730831799625], [-83.79353316288577, 43.94605012583866], [-83.90063950972782, 43.75861279661775], [-83.87461004586216, 43.71233778347136], [-83.67525040681518, 43.6443742513583], [-83.51528311469774, 43.752587722746554], [-83.28961039743865, 44.014449220979984], [-82.92137348284155, 44.12084258006588], [-82.71823945731957, 44.034705482317364], [-82.59837152186385, 43.87312275470713], [-82.49024271485442, 43.44372679285816], [-82.47397107186625, 43.23981344863426], [-82.3639448604451, 42.98130411041138], [-82.47119554726756, 42.595712259049876], [-82.68538191864498, 42.50947225179908], [-82.72740999234321, 42.53845404675033], [-82.73461451944785, 42.62132776451569], [-82.75946788439835, 42.612629007371325], [-82.88404262537875, 42.31986091908097], [-83.08259652007503, 42.20314534306506], [-83.14563542948032, 41.976498624410716], [-83.39669799388284, 41.76508753692289], [-83.04369078902494, 41.64046924621366], [-82.93705178870574, 41.57417618135661], [-82.8191420662649, 41.63724119173826], [-82.59265833895138, 41.47575052796282], [-82.4774958502294, 41.43429142644903], [-82.02282703313105, 41.56244092664597], [-81.7520662412056, 41.53733742094332], [-81.46723696786928, 41.71647029356693], [-81.03079523746253, 41.89896854585237], [-80.3490350861702, 42.08079081894965], [-79.18229126269146, 42.59371811977032], [-79.08077465147315, 42.730806511176155], [-78.91940924343649, 42.80813372878357], [-78.96756112841474, 42.91475589437471], [-79.05999542992471, 42.97111924699625], [-79.12234442422928, 43.25457154175049], [-79.0871461469372, 43.30826939050417], [-78.48612670729862, 43.4254182300832], [-77.75169744689191, 43.392132737476885], [-77.52949354269863, 43.28661782245171], [-77.39581172814731, 43.32662884349337], [-76.96492696674451, 43.32144325937142], [-76.71630030654688, 43.38878015877853], [-76.43551663527344, 43.56948781204043], [-76.28467025063001, 43.577312897739326], [-76.27890389024222, 43.81373372461054], [-76.20747568690882, 43.94017836334127], [-76.4072208105524, 44.05052982222767], [-76.34816521507324, 44.23180823548091], [-75.94097682456005, 44.408972853558595], [-75.7966626933498, 44.55300313511064], [-75.30762744239756, 44.89202824864951], [-74.84555130010357, 45.06534261425851], [-74.14858843532983, 45.041146421218144], [-71.53325608594545, 45.06262751306049], [-71.38822707832215, 45.31247927516994], [-71.1524497503099, 45.29595010795046], [-71.10143511134562, 45.34930008254108], [-70.7427016810592, 45.46306718559997], [-70.75795741573968, 45.54437997576848], [-70.58679612009456, 45.70420592172843], [-70.45667849957594, 45.760670074650285], [-70.45564159479804, 45.83037827690901], [-70.31887096168663, 45.912953525329904], [-70.35639745156001, 46.08215519159523], [-70.25062648740794, 46.357978463681576], [-70.10181522057823, 46.44746869697391], [-70.0387524108907, 46.72254619152606], [-69.23531668137697, 47.510173852473386], [-69.01392484092845, 47.467990029319225], [-68.98523780541986, 47.27393470049726], [-68.89830374403323, 47.23046800048498], [-68.58967626025618, 47.33477484008162], [-68.38802439887499, 47.335957], [-68.22759918722222, 47.40676838020413], [-67.9264348996095, 47.239708587179564], [-67.75191692666735, 47.099055465715914], [-67.7477082593429, 45.715763415238015], [-67.42042895037505, 45.63957787358219], [-67.40717254055846, 45.594211613229305], [-67.44762920809478, 45.49736072326433], [-67.36777310046428, 45.378713226102334], [-67.42441240805663, 45.285368090427674], [-67.32843874925955, 45.182011790648694], [-67.12424222557286, 45.19550097503261], [-66.92961814132283, 44.80359386346832], [-67.166019625114, 44.601028946139735], [-67.29652369395792, 44.64456928885635], [-67.39088516837839, 44.54938044900457], [-67.50878731865724, 44.56547545625102], [-67.54946916494868, 44.483741117481244], [-67.73701061030154, 44.49105065300544], [-68.0312031118982, 44.28117576946581], [-68.0876231364043, 44.2984331971129], [-68.1526162732981, 44.4295688651105], [-68.12386090029509, 44.3337576183009], [-68.14101106389683, 44.29046621158981], [-68.39255202067193, 44.20296921151313], [-68.44163435208074, 44.219269029741206], [-68.48150953308743, 44.30551093961687], [-68.56341661314883, 44.262180675659124], [-68.84403582876209, 44.26560891579163], [-68.87402761691659, 44.300640358858914], [-68.8785683111653, 44.39848619534113], [-68.92248068769449, 44.38907627765067], [-68.90850590254294, 44.309897386454104], [-69.04231539320894, 44.09958842772264], [-69.0302427858818, 44.01579469910399], [-69.2352018727576, 43.87861915120258], [-69.42629764990764, 43.911347522216566], [-69.52659499442377, 43.798986013722335], [-69.68685513393898, 43.776414860940676], [-69.82461632333646, 43.671191747267514], [-70.0071863994752, 43.69688237527726], [-70.05196222010531, 43.77154808384532], [-70.19047958425165, 43.66343724117865], [-70.1469285050931, 43.58230492995789], [-70.15512820294234, 43.53637739254516], [-70.31331805914985, 43.48806230253916], [-70.33562152308355, 43.39919903581239], [-70.51879025988957, 43.284892702755236], [-70.7657697120174, 42.86247309872879], [-70.73060040832938, 42.69677174141669], [-70.77662398425947, 42.53917591979921], [-70.93407783801865, 42.39822210910969], [-70.93707992075585, 42.314164340593486], [-70.73440951654572, 42.2826477829471], [-70.59430447350256, 42.11228673501068], [-70.60324259530792, 41.997513694753856], [-70.51191284702286, 41.961225458896386], [-70.49286493194754, 41.85101648839799], [-70.25874683187324, 41.7683865214212], [-69.9091843292024, 41.85046448835822], [-69.88916988126194, 41.79494460472028], [-69.98312065783045, 41.62892436843289], [-70.48328124457674, 41.501624396752035], [-70.67267793281535, 41.497729597966035], [-70.77962083267971, 41.585965769521664], [-70.88162587823123, 41.56896534247378], [-70.9178332705692, 41.49331539086029], [-71.31662660903692, 41.42492806102716], [-71.36581872776814, 41.487154885998166], [-71.26238795049227, 41.66517165762557], [-71.32133869166216, 41.673210461773216], [-71.40120873517246, 41.55971137061436], [-71.43326796082187, 41.35822908307189], [-71.4655708600777, 41.32351556857859], [-71.8583209158557, 41.27158423195687], [-71.94749348781698, 41.287186320545], [-72.38206418039269, 41.21142949101056], [-72.89258431255044, 41.232635515845026], [-73.11241787954677, 41.09957779771725], [-73.48013219216122, 41.00457205875409], [-73.23988391086235, 40.95837059597576], [-73.14616968063143, 41.01531629725337], [-72.77858185680215, 41.015567999999995], [-72.60419859863448, 41.046340910204535], [-72.28069266407998, 41.20725755024616], [-72.23697586181069, 41.1804373530199], [-72.21587365402505, 41.08109790624965], [-72.05627100869994, 41.01619351179015], [-72.07739086661743, 40.94863415568906], [-72.44880722864886, 40.79869903828076], [-73.22609805039562, 40.57789514910635], [-73.55616590566689, 40.532635383480496], [-73.77016032140361, 40.5427459993402], [-73.94000244865298, 40.49406311250492], [-74.04597925164416, 40.64508650190975], [-74.15249460785772, 40.60248048907761], [-74.19966365092594, 40.51993479827546], [-73.96973614789795, 40.45138586315702], [-73.9303451941348, 40.28642905286337], [-74.0535257454564, 39.741277350343154], [-74.37559625367723, 39.32634738468234], [-74.5802282763586, 39.20774253225458], [-74.79285534645842, 38.943923769784234], [-74.83601241160252, 38.964990999548604], [-74.92167937005851, 39.11565921010387], [-75.19655709970607, 39.193674169424426], [-75.39099849619012, 39.31234071013871], [-75.35585018167978, 39.08638319959656], [-75.16394861693435, 38.855117741145946], [-75.04513651359889, 38.81672709186553], [-74.9986816547691, 38.43930816584584], [-75.20476778916692, 37.99931937322644], [-75.34304581256487, 37.8223217578692], [-75.4728288087137, 37.76280186575854], [-75.54930307803585, 37.54918937473359], [-75.76213526979825, 37.16855403645146], [-75.95685244527536, 37.0733452866366], [-76.01449645808376, 37.09325686078021], [-76.07666130318212, 37.266836209109805], [-75.98386289038241, 37.58816095678886], [-75.78331086149488, 37.87927478823913], [-75.89003563032942, 37.85967860599064], [-75.92971907961004, 37.88685905865291], [-75.93043629535497, 38.050357546261154], [-76.01178055860038, 38.13996009918148], [-75.92490230186608, 38.22110277456086], [-75.99433446525268, 38.29549444286897], [-76.04387427876198, 38.25408294421477], [-76.27144345956924, 38.272177526673076], [-76.33368227520104, 38.37707801607648], [-76.34780070476151, 38.27224628518717], [-76.26800659234145, 38.13476385889419], [-76.32298065921898, 38.02555437858971], [-76.3669937356353, 38.007605228628094], [-76.20941380327926, 37.93010232849088], [-76.18571269547331, 37.890384074234376], [-76.30600092303106, 37.60986540887541], [-76.19659220253308, 37.38822035877603], [-76.33662880365274, 37.25789088621114], [-76.34615099948557, 37.18488796435236], [-76.22443563162977, 37.0892320875196], [-76.3024366890676, 36.99076218429682], [-75.9540512706962, 36.95277759367369], [-75.70366808896915, 36.150437649409845], [-75.74561056915276, 36.10198918684647], [-76.01121762698862, 36.136219641295746], [-76.05748149182132, 36.09233676879134], [-76.3834403602157, 36.03422676033515], [-76.34226230800067, 35.9970423935203], [-76.05318570947118, 36.04198745817131], [-75.94651183136705, 35.95374976556766], [-75.75288559465098, 35.97905311761728], [-75.66547717792231, 35.700699848020314], [-75.73380741448406, 35.55423857300728], [-75.87381386922294, 35.52259721582123], [-76.12836276558322, 35.27833619562783], [-76.4453044462064, 35.26454432516253], [-76.48079142206316, 35.15453398727357], [-76.36599643351974, 35.01766272933924], [-76.25246005326015, 34.98302526388014], [-76.22956582315344, 34.937473526375875], [-76.46825736398263, 34.618186955528024], [-76.67615251715091, 34.6440815358501], [-76.98259852234031, 34.61766344412962], [-77.1914860439578, 34.560219804752926], [-77.52609469279957, 34.374325895452365], [-77.7880004276076, 34.13337284896364], [-77.9453559738137, 33.80312327927867], [-78.18380953924894, 33.86522245758536], [-78.53015626514276, 33.80225058691572], [-78.69415581242451, 33.75612612362869], [-78.90104727823406, 33.600957052084766], [-79.10255381024984, 33.35811640318622], [-79.1463006007469, 33.143845184661686], [-79.32632505042244, 32.96847142843919], [-79.54847364585473, 32.957573000000004], [-79.59906683119932, 32.84888636925707], [-79.83551063340035, 32.71586049314778], [-79.9682620777969, 32.57325420581583], [-80.18482225915892, 32.50718395588362], [-80.38832278130637, 32.36820856422723], [-80.425677111658, 32.28647737022596], [-80.63358812907667, 32.203344224913344], [-80.84777628003124, 31.99960436950131], [-81.08585808951327, 31.671580414304113], [-81.1301885974327, 31.497430027850015], [-81.23094008389204, 31.347585131111796], [-81.24650125454957, 31.18256143833619], [-81.35308579059472, 31.10557011984063], [-81.3938453487726, 30.708168148581088], [-81.33482711555851, 30.28431482624792], [-81.2106567224531, 29.803826692036704], [-80.92370847726401, 29.17037527851707], [-80.47754352928249, 28.480011148345266], [-80.48358064485114, 28.432383710866468], [-80.53804572550631, 28.388734454095346], [-80.51872929548303, 28.108649745584454], [-80.33532370385205, 27.757509334441288], [-80.04504670385205, 27.04002933444129], [-79.98127776695522, 26.800295166167352], [-79.98705989133893, 26.560125808534245], [-80.09747073101205, 25.728325278722487], [-80.2027060599892, 25.678923341352796], [-80.28416581227906, 25.46622237208569], [-80.26381954271656, 25.3553097537619], [-80.47842452096867, 25.150911695560506], [-80.57694194663881, 25.18572711307524], [-80.74859441808607, 25.1158174327429], [-81.08017060395804, 25.070864606367614], [-81.21585553037521, 25.204113946820303], [-81.17999634063622, 25.373093800676507], [-81.38792018874959, 25.78386921242962], [-81.52809661206048, 25.849577660679145], [-81.67097326368966, 25.79450404519394], [-81.71940882529367, 25.813338883938044], [-81.84705410925297, 26.072737190781982], [-81.88000174142515, 26.269932545919666], [-82.08667323666592, 26.496638405741354], [-82.14004508165758, 26.658695522792538], [-82.12895266008559, 26.744026704218022], [-82.24364852670912, 26.70870567075847], [-82.28682384092261, 26.725326674549876], [-82.60740329280283, 27.27069684015413], [-82.73805168508164, 27.41595635307431], [-82.73566190182575, 27.463507598538282], [-82.50139949494543, 27.774846564390057], [-82.56651906436579, 27.767610983283088], [-82.7305742399274, 27.64052511395475], [-82.90088343175526, 27.8772391230622], [-82.7259516824519, 28.443884049098937], [-82.69527371649666, 28.868270824660648], [-82.80694265832824, 28.97260364319975], [-82.84277364294093, 29.10250782173113], [-83.01995560035535, 29.136350890708595], [-83.249785272641, 29.380162384976817], [-83.43528801401081, 29.48387649820781], [-83.45805460034211, 29.632828240207782], [-83.57252092379935, 29.686844554899558], [-83.67604765122596, 29.84846868196565], [-84.033640495105, 30.05280771638875], [-84.3030984567767, 30.013051147694753], [-84.29232456260732, 29.89311585454674], [-84.32521598633086, 29.854874690841783], [-84.44639990943317, 29.87683386876877], [-84.85706891403474, 29.694372645444417], [-85.31581806897813, 29.649741390722763], [-85.35997193645301, 29.68980534978545], [-85.35173292297361, 29.793874735185554], [-85.43719370205073, 29.901825409085255], [-85.94488857257073, 30.190409286619122], [-86.30736457656222, 30.31301180794599], [-86.63135928090364, 30.34488052107098], [-87.66356817003279, 30.197925761984454], [-87.94823451832335, 30.383239362937516], [-87.98614468405744, 30.623362233010162], [-88.1220266200257, 30.27069758724416], [-88.38946196809991, 30.315826715049475], [-88.49909443312617, 30.27411096563854], [-88.74948884319376, 30.295985344757707], [-88.85447574925932, 30.35869719793127], [-89.071850153165, 30.319174251031736], [-89.39596514834864, 30.207593313131095], [-89.77499752440006, 30.00956417179409], [-89.78119871342122, 29.981657830458], [-89.62127127404477, 29.938040713103902], [-89.53108501072774, 30.073995454987735], [-89.48690629076795, 30.088361910469306], [-89.2442321351838, 29.905844038791944], [-89.27023043171012, 29.717044605858465], [-89.41657276697453, 29.650071296474874], [-89.57684755252815, 29.681840240568686], [-89.63220862249938, 29.5299133505601], [-89.48851635281824, 29.435487515921047], [-89.17880944196469, 29.39447328787733], [-89.06049837679916, 29.245260864923473], [-88.96519144024626, 29.212614827521943], [-88.96266970248539, 29.148808259432123], [-89.16043661539695, 28.959412981595236], [-89.36372854427476, 29.000350452431018], [-89.5122092761585, 29.17301559647345], [-89.87759307904942, 29.268107019259684], [-89.901304, 29.41302699689789], [-89.97911025237566, 29.38944908376008], [-89.9740659254121, 29.266258987310966], [-90.08594032253731, 29.104896630717004], [-90.25009331780052, 29.08233075638374], [-90.36045624166766, 29.22841000747347], [-90.53375438713158, 29.232536189668583], [-90.61812019351002, 29.088036363909115], [-90.81440505036718, 29.038576628681977], [-90.97821921264475, 29.130276713913535], [-91.12648305405489, 29.151655001300426], [-91.25746352024802, 29.3989882778672], [-91.45214315805858, 29.49395393370266], [-91.5605611395775, 29.48818108296118], [-91.65205073602708, 29.684267885697185], [-91.89706696512619, 29.66240228062043], [-91.93542257636717, 29.759360407650977], [-92.08391513748614, 29.689853018184483], [-92.06332284515531, 29.62486918080217], [-92.0843457448145, 29.582047155990807], [-92.30821026814712, 29.48524318917726], [-92.62974879819878, 29.5306199828441], [-93.22874657881557, 29.72564031324498], [-93.7526111166559, 29.678016703510824], [-93.82772403785911, 29.639725775432957], [-93.99553878694458, 29.63328510598296], [-94.52876812300376, 29.496465447508374], [-94.74100083534982, 29.584117093359733], [-94.7742991641995, 29.692617876409017], [-94.85807895701188, 29.624606345821295], [-94.9351188196302, 29.638075278706566], [-94.95532139448218, 29.579711920374137], [-94.86547903490253, 29.515186455459958], [-94.85344650686964, 29.28369457225886], [-95.050120075509, 29.07477116365834], [-95.351352075509, 28.828308163658342], [-95.97445236946919, 28.55534356775337], [-96.05362711864665, 28.591851856703304], [-96.2234648427522, 28.53229497041558], [-96.27680436996269, 28.583692018730236], [-96.44641217038111, 28.553539153853976], [-96.35788547952474, 28.463848636257833], [-96.36595288244067, 28.404871411502373], [-96.58756845862698, 28.307994350236598], [-96.73313402028056, 28.343928895191375], [-96.76236444531567, 28.1951376321892], [-96.9885499985969, 28.006168237852535], [-97.21174713066881, 27.67137351003197], [-97.38313839456663, 27.288047755257402], [-97.4348122428164, 26.97947112123967], [-97.5089391891855, 26.944825565639913], [-97.51199355937985, 26.86235812806441], [-97.4216745063773, 26.77219927236986], [-97.3942541582786, 26.480433227717075], [-97.28732904713235, 26.373874111191046], [-97.25711658696581, 26.176827412148814], [-97.16984902466778, 25.977408818744216], [-97.5270381657351, 25.837615566107438], [-97.67585829148037, 25.97322803528944], [-97.89028340370164, 26.01810809106958], [-98.21087727135784, 26.008980065072077], [-98.48246353489844, 26.172771752363783], [-98.68840757822133, 26.19192065761025], [-98.84535616672869, 26.323230834409472], [-99.05539351770571, 26.369885242638997], [-99.20945623608002, 26.50502733237047], [-99.31027777774365, 26.813940099624997], [-99.4934610569409, 27.00304405045797], [-99.47670232114356, 27.166241243412152], [-99.55694700749058, 27.33443910620184], [-99.53319874971683, 27.468248863852633], [-99.6327934389198, 27.593824982575246], [-99.73453110161296, 27.61314929800121], [-99.91525225166266, 27.763965403816435], [-99.97897047478148, 27.954576793573974], [-100.11488558988168, 28.105592771149308], [-100.33655404745309, 28.251964485025802], [-100.44260200369555, 28.552712179574495], [-100.53992472207035, 28.636395675607396], [-100.67586258273641, 28.885607858920178], [-100.71974554690843, 29.07906018978907], [-100.83191845872793, 29.205863576651808], [-101.0471366271745, 29.334065281916565], [-101.09740490932491, 29.41840303505899], [-101.2943501448667, 29.499078145157593], [-101.44114347601264, 29.707107638991026], [-101.8530454593728, 29.753446095074676], [-102.12133446423763, 29.74312437863233], [-102.31264785302426, 29.80754599639029], [-102.36702328486349, 29.719847737422292], [-102.6035977198223, 29.685365062344868], [-102.76537720544309, 29.49907326220577], [-102.87823447838217, 29.16159890251274], [-102.9517689188576, 29.136986583267223], [-103.08211562022619, 28.951155146674992], [-103.298373784557, 28.935226433492932], [-103.54985892471765, 29.090571066313785], [-104.16871667788949, 29.337236926572828], [-104.29754405038445, 29.473035497860657], [-104.54195007246278, 29.60292503423663], [-104.72264989634509, 29.902823535223405], [-104.73758425301705, 30.16274279076812], [-104.9021387975072, 30.365880319478155], [-104.94243226576312, 30.54610693350921], [-105.03524876941239, 30.643564304707812], [-105.4240555290639, 30.814544381742813], [-105.63352854711472, 31.044400407074882], [-105.8026199593427, 31.12720890796732], [-105.98286202745544, 31.322517837874162], [-106.23716858577387, 31.429903233659665], [-106.41330443068401, 31.6901988641394], [-106.53754985731891, 31.736216], [-108.160008, 31.736216], [-108.16024876366639, 31.326728142983523], [-108.20510714298352, 31.28186976366639], [-111.0795668006673, 31.281891711375383], [-114.83447980267375, 32.44660845090882], [-114.86423028059481, 32.502530558706646], [-114.79924793317339, 32.66175159813779], [-117.14705816228535, 32.490992812713124], [-117.29229833063458, 32.64692135454074], [-117.30223747997458, 32.867887524698], [-117.3739948646258, 33.09853646161402], [-117.50666125824254, 33.26181746018887], [-117.8113651322098, 33.49702755378081], [-118.17888498174032, 33.70344303839334], [-118.257262077484, 33.653231035717845], [-118.44304950553273, 33.70111393794373], [-118.44590355088347, 33.8263742612261], [-118.58595753638195, 33.988311931681274], [-118.80895396934706, 33.94932895307524], [-119.23539729493551, 34.09966193359177], [-119.31646060979676, 34.23057770177643], [-119.57024248318875, 34.36493243710739], [-119.87939642185297, 34.359793031190414], [-120.14291436825387, 34.42488677934747], [-120.47913362020923, 34.398401871320765], [-120.68186175679698, 34.542538294858225], [-120.66340476349662, 34.835938689321466], [-120.72004776859778, 34.90274711892885], [-120.68767862501757, 35.073879622114454], [-120.93094409017826, 35.21330175420187], [-120.95319576255473, 35.4052746592083], [-121.03301542897778, 35.42042306184219], [-121.19626856875043, 35.593073492310324], [-121.31698864369044, 35.637746297805364], [-121.37495687339766, 35.75631656667494], [-121.74872277413385, 36.15678031029442], [-121.93819153995973, 36.287475479089714], [-121.98448167339839, 36.64735156619287], [-121.94698563875679, 36.6873812269618], [-121.88822411334117, 36.67509335971987], [-121.8441594874673, 36.793729319377746], [-121.95106134416565, 36.925301181798176], [-122.12898657482268, 36.91257295264653], [-122.36730442166022, 37.077083738078606], [-122.46163409724913, 37.21833730398049], [-122.45300972855846, 37.34864387718743], [-122.56468982675437, 37.510202073341816], [-122.565777, 37.783465], [-122.53029123386273, 37.83131201678661], [-122.39108862964692, 37.833465], [-122.44155741754918, 38.07499471640352], [-122.46942692802666, 37.89602844083726], [-122.69244942376704, 37.84392324865402], [-122.9626321249511, 37.986702700016174], [-123.02302067194016, 38.244074284397236], [-123.1619139065758, 38.41273074318483], [-123.36390414977849, 38.52830194174166], [-123.78161354246136, 38.93269208629433], [-123.7439820683668, 39.03734143248928], [-123.8738800157878, 39.3569353593832], [-123.81699510282805, 39.552750487781736], [-123.8964279775589, 39.80594294594521], [-124.14135416004143, 40.066502896741945], [-124.39843449358256, 40.22533315306446], [-124.4600962354288, 40.43143330668947], [-124.20470602438391, 40.89850974546185], [-124.16301171823811, 41.02359097220645], [-124.20787115622525, 41.15071982012739], [-124.11801775907297, 41.44227843951438], [-124.19023269623756, 41.68299518973606], [-124.30407363788983, 41.76358548038365], [-124.26859365734741, 41.98083209541307], [-124.40337892858179, 42.099663111465325], [-124.48227777267473, 42.432335118386725], [-124.46754904974046, 42.64783407020927], [-124.60310380967776, 42.83561340152459], [-124.50112710568447, 43.02264803441232], [-124.43004522955631, 43.289398821690014], [-124.28249910681787, 43.57421586881333], [-124.21899549331458, 43.81764815866652], [-124.11073270896024, 44.6566825136269], [-124.12607743875445, 44.779937979893475], [-124.027638532482, 45.15279749545827], [-123.99013654632685, 45.65638972624738], [-124.04366955853743, 45.9534530426984], [-123.98754753106863, 46.14056774857421], [-123.88207804830569, 46.190570202559655]], [[-84.78915298689435, 45.81523420255871], [-84.8547278647904, 45.83006324463987], [-85.03693269487984, 45.96377329154893], [-85.34537977479216, 46.042192056857715], [-85.48533699095618, 46.04685732578962], [-85.65058961863132, 45.917206616385016], [-85.92362562455068, 45.883158075045365], [-86.20014282443762, 45.90944141029469], [-86.28136713927607, 45.870763535047885], [-86.32852965050463, 45.75183789913732], [-86.65425278051897, 45.65402642740686], [-86.7103070445467, 45.6849519844557], [-86.70267249995788, 45.79465323858921], [-86.7532404798748, 45.804766539121225], [-86.81893582302777, 45.67922561254854], [-87.0550387762023, 45.66987069479144], [-87.13769520936793, 45.62201605060265], [-87.2871596524592, 45.39285435829719], [-87.54555665855825, 45.11925455408957], [-87.58913659088795, 44.94282133036736], [-87.79159413631425, 44.90562768231854], [-87.93921573928861, 44.6989588756567], [-87.97698665451242, 44.59937998233884], [-87.93874587214731, 44.59027528747651], [-87.80944656141827, 44.67801440659361], [-87.64216096024971, 44.87705327122707], [-87.43594266746136, 44.955631848349455], [-87.26589357668409, 45.208406644969195], [-87.03863099530209, 45.270513768836125], [-86.98829095309195, 45.24766732833878], [-87.00554920542407, 45.06190800691415], [-87.15188349121436, 44.93555204732579], [-87.4235426433374, 44.53072715904639], [-87.49524087705669, 44.315631522820205], [-87.4934880212038, 44.14036533726292], [-87.60482740071802, 44.0680198947881], [-87.68548162704067, 43.873501387918054], [-87.65682295393405, 43.67205868238046], [-87.74749469925601, 43.53802166368062], [-87.86142453256832, 43.24283870537135], [-87.83648561806858, 43.01838209989556], [-87.71475019707819, 42.78791125552016], [-87.78309070322742, 42.313432614837104], [-87.63864902370047, 42.10152519440547], [-87.48358418615584, 41.743843020235595], [-87.4098812819986, 41.694708], [-87.12769106920985, 41.694708], [-86.84546068257183, 41.80446442051549], [-86.65667112083324, 41.926922791583664], [-86.52292118598609, 42.1458112247591], [-86.39878356668373, 42.281098544744765], [-86.31168119258727, 42.46042608153319], [-86.25950658448389, 42.72130197994098], [-86.28016698149703, 43.00021356740786], [-86.57679620140206, 43.59519170251088], [-86.48626498050716, 43.817709455204934], [-86.54807945784557, 44.087957610562135], [-86.31552742307919, 44.3678367339241], [-86.27156690826729, 44.568102688705295], [-86.29413182112904, 44.71824871798507], [-86.13394000549674, 44.77779321796178], [-86.09326578670628, 44.94587050266874], [-85.83224269782038, 44.994120770297165], [-85.61974278854957, 45.17746244039864], [-85.56272162081483, 45.135567796543285], [-85.57660352947258, 44.808976079884204], [-85.5469555579354, 44.80429477623516], [-85.4427855190119, 44.94752917412475], [-85.42831037327686, 45.2666068964059], [-85.32347998552696, 45.36089171340641], [-85.10133389284441, 45.4018017824236], [-85.16711977589048, 45.56278514457624], [-85.1578695829682, 45.608881554134975], [-84.96286085832541, 45.80154790331391], [-84.78915298689435, 45.81523420255871]], [[-76.34991442122143, 38.41828281719417], [-76.37765460732206, 38.511296078443486], [-76.31186571865163, 38.550943999999994], [-76.30632863337577, 38.74738342061363], [-76.24630546662826, 38.83906880265084], [-76.32901576738506, 39.15376808681302], [-76.23665575192877, 39.31858160111473], [-76.33308993946534, 39.27237375925589], [-76.39460296353073, 39.18010382203999], [-76.4116866886569, 38.89407601838234], [-76.50562985346534, 38.75754889341529], [-76.46824150036373, 38.56126174623918], [-76.34991442122143, 38.41828281719417]], [[-76.06680636722582, 39.40432213211148], [-76.04458352055671, 39.40862337890737], [-76.03196635182525, 39.496942638561976], [-76.05098834129953, 39.4936344402179], [-76.06680636722582, 39.40432213211148]], [[-76.40359267216185, 38.025546009677136], [-76.50960674278598, 38.098746376866785], [-76.48264749385335, 38.06429864517542], [-76.40359267216185, 38.025546009677136]]], [[[-85.47414937808283, 45.56317948507667], [-85.6593231542883, 45.5536330152115], [-85.6719599663016, 45.598748776425815], [-85.61196641796977, 45.782312814899576], [-85.55701893189227, 45.80659216970844], [-85.46517956825, 45.75616937906756], [-85.4432114692604, 45.59765420276183], [-85.47414937808283, 45.56317948507667]]], [[[-88.6311300806011, 47.97545389115859], [-89.04538659474458, 47.80148499035519], [-89.19237267064466, 47.78379398797402], [-89.23764507345852, 47.82395604293116], [-89.1997735860391, 47.982547681165606], [-88.56530348516232, 48.22005419215482], [-88.51108662537087, 48.2071726637786], [-88.50246373808574, 48.15211771419348], [-88.6311300806011, 47.97545389115859]]], [[[-122.55917465328943, 48.14593885542478], [-122.61624478294576, 48.10185763027141], [-122.80497135869348, 48.19464376250393], [-122.81477045944115, 48.24489892260156], [-122.75164244253727, 48.34751435425603], [-122.59797319675471, 48.40273585116563], [-122.55187061406986, 48.3895625514103], [-122.55917465328943, 48.14593885542478]]], [[[-122.95400396817031, 48.74744733495434], [-122.88648296937725, 48.756090258450705], [-122.72100024000017, 48.5744293951151], [-122.79181402013552, 48.37373476058842], [-123.08667085289125, 48.43645161271692], [-123.07094363421895, 48.604024328127025], [-122.95400396817031, 48.74744733495434]]]]}}